{
  "type": "FeatureCollection",
  "features": [
    {
      "type": "Feature",
      "properties": {
        "norad_id": 27954,
        "name": "GALAXY 13 (HORIZONS-1)",
        "group": "intelsat",
        "lat": -0.15964964557506864,
        "lon": -84.38051800871507,
        "alt_km": 35778.26061261515,
        "timestamp": "2025-12-02T23:34:15.181110+00:00",
        "meta_object_name": "GALAXY 13 (HORIZONS-1)",
        "meta_object_id": "2003-044A",
        "meta_epoch": "2025-12-02T10:12:38.537856",
        "meta_mean_motion": 1.0027209,
        "meta_eccentricity": 0.000209,
        "meta_inclination": 0.9089,
        "meta_ra_of_asc_node": 86.5962,
        "meta_arg_of_pericenter": 159.2396,
        "meta_mean_anomaly": 188.8459,
        "meta_ephemeris_type": 0,
        "meta_classification_type": "U",
        "meta_norad_cat_id": 27954,
        "meta_element_set_no": 999,
        "meta_rev_at_epoch": 4459,
        "meta_bstar": 0,
        "meta_mean_motion_dot": 1.53e-06,
        "meta_mean_motion_ddot": 0,
        "tle_line1": "1 27954U 03044A   25336.42544604  .00000153  00000+0  00000+0 0  9993",
        "tle_line2": "2 27954   0.9089  86.5962 0002090 159.2396 188.8459  1.00272090 44593"
      },
      "geometry": {
        "type": "Point",
        "coordinates": [
          -84.38051800871507,
          -0.15964964557506864
        ]
      }
    },
    {
      "type": "Feature",
      "properties": {
        "norad_id": 28358,
        "name": "INTELSAT 10-02",
        "group": "intelsat",
        "lat": 0.01798389314902991,
        "lon": 64.63262966694612,
        "alt_km": 35790.08874604599,
        "timestamp": "2025-12-02T23:34:15.181122+00:00",
        "meta_object_name": "INTELSAT 10-02",
        "meta_object_id": "2004-022A",
        "meta_epoch": "2025-12-02T08:38:39.570144",
        "meta_mean_motion": 1.00271752,
        "meta_eccentricity": 0.0001137,
        "meta_inclination": 0.0384,
        "meta_ra_of_asc_node": 84.83,
        "meta_arg_of_pericenter": 193.1613,
        "meta_mean_anomaly": 282.1496,
        "meta_ephemeris_type": 0,
        "meta_classification_type": "U",
        "meta_norad_cat_id": 28358,
        "meta_element_set_no": 999,
        "meta_rev_at_epoch": 7858,
        "meta_bstar": 0,
        "meta_mean_motion_dot": 1e-07,
        "meta_mean_motion_ddot": 0,
        "tle_line1": "1 28358U 04022A   25336.36018021  .00000010  00000+0  00000+0 0  9993",
        "tle_line2": "2 28358   0.0384  84.8300 0001137 193.1613 282.1496  1.00271752 78587"
      },
      "geometry": {
        "type": "Point",
        "coordinates": [
          64.63262966694612,
          0.01798389314902991
        ]
      }
    },
    {
      "type": "Feature",
      "properties": {
        "norad_id": 28626,
        "name": "XM-3 (RHYTHM)",
        "group": "intelsat",
        "lat": 0.05419233310002864,
        "lon": -133.79352312766545,
        "alt_km": 36161.31270934224,
        "timestamp": "2025-12-02T23:34:15.181134+00:00",
        "meta_object_name": "XM-3 (RHYTHM)",
        "meta_object_id": "2005-008A",
        "meta_epoch": "2025-12-01T16:19:10.718688",
        "meta_mean_motion": 0.98955107,
        "meta_eccentricity": 8.384e-05,
        "meta_inclination": 0.1433,
        "meta_ra_of_asc_node": 80.6256,
        "meta_arg_of_pericenter": 270.4663,
        "meta_mean_anomaly": 131.2697,
        "meta_ephemeris_type": 0,
        "meta_classification_type": "U",
        "meta_norad_cat_id": 28626,
        "meta_element_set_no": 999,
        "meta_rev_at_epoch": 4064,
        "meta_bstar": 0,
        "meta_mean_motion_dot": -2.1e-06,
        "meta_mean_motion_ddot": 0,
        "tle_line1": "1 28626U 05008A   25335.67998517 -.00000210  00000+0  00000+0 0  9999",
        "tle_line2": "2 28626   0.1433  80.6256 0000838 270.4663 131.2697  0.98955107 40648"
      },
      "geometry": {
        "type": "Point",
        "coordinates": [
          -133.79352312766545,
          0.05419233310002864
        ]
      }
    },
    {
      "type": "Feature",
      "properties": {
        "norad_id": 28659,
        "name": "DIRECTV 8",
        "group": "intelsat",
        "lat": 0.003557924304362586,
        "lon": -53.39479155998281,
        "alt_km": 35776.99878886856,
        "timestamp": "2025-12-02T23:34:15.181147+00:00",
        "meta_object_name": "DIRECTV 8",
        "meta_object_id": "2005-019A",
        "meta_epoch": "2025-12-02T07:38:38.698080",
        "meta_mean_motion": 1.00271214,
        "meta_eccentricity": 0.0003242,
        "meta_inclination": 0.0129,
        "meta_ra_of_asc_node": 291.5318,
        "meta_arg_of_pericenter": 327.288,
        "meta_mean_anomaly": 168.2298,
        "meta_ephemeris_type": 0,
        "meta_classification_type": "U",
        "meta_norad_cat_id": 28659,
        "meta_element_set_no": 999,
        "meta_rev_at_epoch": 7509,
        "meta_bstar": 0,
        "meta_mean_motion_dot": 2.2e-07,
        "meta_mean_motion_ddot": 0,
        "tle_line1": "1 28659U 05019A   25336.31850345  .00000022  00000+0  00000+0 0  9995",
        "tle_line2": "2 28659   0.0129 291.5318 0003242 327.2880 168.2298  1.00271214 75099"
      },
      "geometry": {
        "type": "Point",
        "coordinates": [
          -53.39479155998281,
          0.003557924304362586
        ]
      }
    },
    {
      "type": "Feature",
      "properties": {
        "norad_id": 28702,
        "name": "GALAXY 28 (G-28)",
        "group": "intelsat",
        "lat": -2.6979351919157004,
        "lon": -23.083474525584666,
        "alt_km": 35783.71928802498,
        "timestamp": "2025-12-02T23:34:15.181159+00:00",
        "meta_object_name": "GALAXY 28 (G-28)",
        "meta_object_id": "2005-022A",
        "meta_epoch": "2025-12-02T08:19:38.698752",
        "meta_mean_motion": 1.00270622,
        "meta_eccentricity": 0.0002664,
        "meta_inclination": 2.7921,
        "meta_ra_of_asc_node": 81.3996,
        "meta_arg_of_pericenter": 181.4969,
        "meta_mean_anomaly": 204.7534,
        "meta_ephemeris_type": 0,
        "meta_classification_type": "U",
        "meta_norad_cat_id": 28702,
        "meta_element_set_no": 999,
        "meta_rev_at_epoch": 5000,
        "meta_bstar": 0,
        "meta_mean_motion_dot": -1.67e-06,
        "meta_mean_motion_ddot": 0,
        "tle_line1": "1 28702U 05022A   25336.34697568 -.00000167  00000+0  00000+0 0  9998",
        "tle_line2": "2 28702   2.7921  81.3996 0002664 181.4969 204.7534  1.00270622 50004"
      },
      "geometry": {
        "type": "Point",
        "coordinates": [
          -23.083474525584666,
          -2.6979351919157004
        ]
      }
    },
    {
      "type": "Feature",
      "properties": {
        "norad_id": 29236,
        "name": "GALAXY 16 (G-16)",
        "group": "intelsat",
        "lat": 0.02046712588562051,
        "lon": -33.36184035072897,
        "alt_km": 35783.244886846944,
        "timestamp": "2025-12-02T23:34:15.181171+00:00",
        "meta_object_name": "GALAXY 16 (G-16)",
        "meta_object_id": "2006-023A",
        "meta_epoch": "2025-12-02T08:59:15.148032",
        "meta_mean_motion": 1.00270257,
        "meta_eccentricity": 0.0002853,
        "meta_inclination": 0.0257,
        "meta_ra_of_asc_node": 222.7593,
        "meta_arg_of_pericenter": 29.6366,
        "meta_mean_anomaly": 214.8919,
        "meta_ephemeris_type": 0,
        "meta_classification_type": "U",
        "meta_norad_cat_id": 29236,
        "meta_element_set_no": 999,
        "meta_rev_at_epoch": 7100,
        "meta_bstar": 0,
        "meta_mean_motion_dot": -1.06e-06,
        "meta_mean_motion_ddot": 0,
        "tle_line1": "1 29236U 06023A   25336.37448088 -.00000106  00000+0  00000+0 0  9990",
        "tle_line2": "2 29236   0.0257 222.7593 0002853  29.6366 214.8919  1.00270257 71004"
      },
      "geometry": {
        "type": "Point",
        "coordinates": [
          -33.36184035072897,
          0.02046712588562051
        ]
      }
    },
    {
      "type": "Feature",
      "properties": {
        "norad_id": 29494,
        "name": "DIRECTV 9S",
        "group": "intelsat",
        "lat": -1.6722571124091439,
        "lon": -35.56238328627051,
        "alt_km": 35783.10028885628,
        "timestamp": "2025-12-02T23:34:15.181183+00:00",
        "meta_object_name": "DIRECTV 9S",
        "meta_object_id": "2006-043A",
        "meta_epoch": "2025-12-02T08:27:38.647296",
        "meta_mean_motion": 1.00270673,
        "meta_eccentricity": 0.0003154,
        "meta_inclination": 1.911,
        "meta_ra_of_asc_node": 83.3217,
        "meta_arg_of_pericenter": 166.4049,
        "meta_mean_anomaly": 207.4424,
        "meta_ephemeris_type": 0,
        "meta_classification_type": "U",
        "meta_norad_cat_id": 29494,
        "meta_element_set_no": 999,
        "meta_rev_at_epoch": 4941,
        "meta_bstar": 0,
        "meta_mean_motion_dot": -9.3e-07,
        "meta_mean_motion_ddot": 0,
        "tle_line1": "1 29494U 06043A   25336.35253064 -.00000093  00000+0  00000+0 0  9999",
        "tle_line2": "2 29494   1.9110  83.3217 0003154 166.4049 207.4424  1.00270673 49416"
      },
      "geometry": {
        "type": "Point",
        "coordinates": [
          -35.56238328627051,
          -1.6722571124091439
        ]
      }
    }
  ]
}